[{"OBJECT_NAME":"RISAT-2BR1","OBJECT_ID":"2019-089F","EPOCH":"2026-03-09T22:23:56.080608","MEAN_MOTION":15.01632497,"ECCENTRICITY":0.00130957,"INCLINATION":36.9618,"RA_OF_ASC_NODE":340.419,"ARG_OF_PERICENTER":88.0635,"MEAN_ANOMALY":272.1607,"EPHEMERIS_TYPE":0,"CLASSIFICATION_TYPE":"U","NORAD_CAT_ID":44857,"ELEMENT_SET_NO":999,"REV_AT_EPOCH":34227,"BSTAR":0.00042406412,"MEAN_MOTION_DOT":5.543e-5,"MEAN_MOTION_DDOT":0},{"OBJECT_NAME":"STARLINK-34757","OBJECT_ID":"2025-152J","EPOCH":"2026-03-09T14:29:44.288448","MEAN_MOTION":15.05654812,"ECCENTRICITY":0.0002943,"INCLINATION":97.6022,"RA_OF_ASC_NODE":285.4077,"ARG_OF_PERICENTER":71.7281,"MEAN_ANOMALY":288.4266,"EPHEMERIS_TYPE":0,"CLASSIFICATION_TYPE":"U","NORAD_CAT_ID":64850,"ELEMENT_SET_NO":999,"REV_AT_EPOCH":3540,"BSTAR":0.00050251,"MEAN_MOTION_DOT":7.199e-5,"MEAN_MOTION_DDOT":0}]
